{"type": "FeatureCollection", "features": [ {"type": "Feature", "properties": {"norad_id": 34077, "name": "IRIDIUM 33 DEB", "group": "iridium-33-debris", "lat": 12.695342479736484, "lon": -132.61093286239577, "alt_km": 684.5721372950939, "timestamp": "2025-12-20T05:41:50.415825+00:00", "meta": {"OBJECT_NAME": "IRIDIUM 33 DEB", "OBJECT_ID": "1997-051CL", "EPOCH": "2025-12-19T04:37:08.925888", "MEAN_MOTION": 14.64901937, "ECCENTRICITY": 0.0009486, "INCLINATION": 86.3856, "RA_OF_ASC_NODE": 48.6652, "ARG_OF_PERICENTER": 18.7729, "MEAN_ANOMALY": 41.3423, "EPHEMERIS_TYPE": 0, "CLASSIFICATION_TYPE": "U", "NORAD_CAT_ID": 34077, "ELEMENT_SET_NO": 999, "REV_AT_EPOCH": 88427, "BSTAR": 0.00072795, "MEAN_MOTION_DOT": 3.915e-05, "MEAN_MOTION_DDOT": 0}, "tle": {"line1": "1 34077U 97051CL  25353.19246442  .00003915  00000+0  72795-3 0  9993", "line2": "2 34077  86.3856  48.6652 0009486  18.7729  41.3423 14.64901937884271"}}, "geometry": {"type": "Point", "coordinates": [-132.61093286239577, 12.695342479736484]}}, {"type": "Feature", "properties": {"norad_id": 34079, "name": "IRIDIUM 33 DEB", "group": "iridium-33-debris", "lat": -55.816249282764936, "lon": -0.10096887465160298, "alt_km": 622.1542386326419, "timestamp": "2025-12-20T05:41:50.415836+00:00", "meta": {"OBJECT_NAME": "IRIDIUM 33 DEB", "OBJECT_ID": "1997-051CN", "EPOCH": "2025-12-19T07:23:13.665120", "MEAN_MOTION": 14.83686948, "ECCENTRICITY": 0.0004814, "INCLINATION": 86.3768, "RA_OF_ASC_NODE": 5.675, "ARG_OF_PERICENTER": 345.2663, "MEAN_ANOMALY": 36.9038, "EPHEMERIS_TYPE": 0, "CLASSIFICATION_TYPE": "U", "NORAD_CAT_ID": 34079, "ELEMENT_SET_NO": 999, "REV_AT_EPOCH": 89075, "BSTAR": 0.0011698, "MEAN_MOTION_DOT": 9.693e-05, "MEAN_MOTION_DDOT": 0}, "tle": {"line1": "1 34079U 97051CN  25353.30779705  .00009693  00000+0  11698-2 0  9994", "line2": "2 34079  86.3768   5.6750 0004814 345.2663  36.9038 14.83686948890757"}}, "geometry": {"type": "Point", "coordinates": [-0.10096887465160298, -55.816249282764936]}}, {"type": "Feature", "properties": {"norad_id": 34088, "name": "IRIDIUM 33 DEB", "group": "iridium-33-debris", "lat": -69.07800323072675, "lon": -143.20108331874118, "alt_km": 600.5393654380605, "timestamp": "2025-12-20T05:41:50.415847+00:00", "meta": {"OBJECT_NAME": "IRIDIUM 33 DEB", "OBJECT_ID": "1997-051CX", "EPOCH": "2025-12-19T21:19:30.821088", "MEAN_MOTION": 14.91686205, "ECCENTRICITY": 0.00064442, "INCLINATION": 86.3843, "RA_OF_ASC_NODE": 27.4388, "ARG_OF_PERICENTER": 153.8691, "MEAN_ANOMALY": 23.3463, "EPHEMERIS_TYPE": 0, "CLASSIFICATION_TYPE": "U", "NORAD_CAT_ID": 34088, "ELEMENT_SET_NO": 999, "REV_AT_EPOCH": 88848, "BSTAR": 0.0014658397, "MEAN_MOTION_DOT": 0.00014784, "MEAN_MOTION_DDOT": 0}, "tle": {"line1": "1 34088U 97051CX  25353.88855117  .00014784  00000+0  14658-2 0  9995", "line2": "2 34088  86.3843  27.4388 0006444 153.8691  23.3463 14.91686205888489"}}, "geometry": {"type": "Point", "coordinates": [-143.20108331874118, -69.07800323072675]}}, {"type": "Feature", "properties": {"norad_id": 34091, "name": "IRIDIUM 33 DEB", "group": "iridium-33-debris", "lat": 0.2212675307437249, "lon": -116.61470312637414, "alt_km": 623.5472960070083, "timestamp": "2025-12-20T05:41:50.415857+00:00", "meta": {"OBJECT_NAME": "IRIDIUM 33 DEB", "OBJECT_ID": "1997-051DA", "EPOCH": "2025-12-19T22:24:18.926496", "MEAN_MOTION": 14.82312131, "ECCENTRICITY": 0.00338449, "INCLINATION": 86.3415, "RA_OF_ASC_NODE": 63.5387, "ARG_OF_PERICENTER": 267.208, "MEAN_ANOMALY": 92.5268, "EPHEMERIS_TYPE": 0, "CLASSIFICATION_TYPE": "U", "NORAD_CAT_ID": 34091, "ELEMENT_SET_NO": 999, "REV_AT_EPOCH": 87973, "BSTAR": 0.0028290664, "MEAN_MOTION_DOT": 0.00022907, "MEAN_MOTION_DDOT": 0}, "tle": {"line1": "1 34091U 97051DA  25353.93355239  .00022907  00000+0  28291-2 0  9999", "line2": "2 34091  86.3415  63.5387 0033844 267.2080  92.5268 14.82312131879737"}}, "geometry": {"type": "Point", "coordinates": [-116.61470312637414, 0.2212675307437249]}}, {"type": "Feature", "properties": {"norad_id": 34097, "name": "IRIDIUM 33 DEB", "group": "iridium-33-debris", "lat": -52.56776833748083, "lon": -176.92012524790061, "alt_km": 797.4410173320166, "timestamp": "2025-12-20T05:41:50.415868+00:00", "meta": {"OBJECT_NAME": "IRIDIUM 33 DEB", "OBJECT_ID": "1997-051DG", "EPOCH": "2025-12-19T00:09:26.087616", "MEAN_MOTION": 14.34825402, "ECCENTRICITY": 0.00819041, "INCLINATION": 86.2, "RA_OF_ASC_NODE": 358.6418, "ARG_OF_PERICENTER": 341.7144, "MEAN_ANOMALY": 18.111, "EPHEMERIS_TYPE": 0, "CLASSIFICATION_TYPE": "U", "NORAD_CAT_ID": 34097, "ELEMENT_SET_NO": 999, "REV_AT_EPOCH": 87209, "BSTAR": 0.0011301988, "MEAN_MOTION_DOT": 3.348e-05, "MEAN_MOTION_DDOT": 0}, "tle": {"line1": "1 34097U 97051DG  25353.00655194  .00003348  00000+0  11302-2 0  9999", "line2": "2 34097  86.2000 358.6418 0081904 341.7144  18.1110 14.34825402872093"}}, "geometry": {"type": "Point", "coordinates": [-176.92012524790061, -52.56776833748083]}}, {"type": "Feature", "properties": {"norad_id": 34145, "name": "IRIDIUM 33 DEB", "group": "iridium-33-debris", "lat": -15.523055579378669, "lon": -31.86748349493552, "alt_km": 752.1025007537446, "timestamp": "2025-12-20T05:41:50.415879+00:00", "meta": {"OBJECT_NAME": "IRIDIUM 33 DEB", "OBJECT_ID": "1997-051DY", "EPOCH": "2025-12-18T08:48:48.486240", "MEAN_MOTION": 14.42328092, "ECCENTRICITY": 0.00557365, "INCLINATION": 86.2113, "RA_OF_ASC_NODE": 330.0199, "ARG_OF_PERICENTER": 75.968, "MEAN_ANOMALY": 284.7708, "EPHEMERIS_TYPE": 0, "CLASSIFICATION_TYPE": "U", "NORAD_CAT_ID": 34145, "ELEMENT_SET_NO": 999, "REV_AT_EPOCH": 87719, "BSTAR": 0.00092678493, "MEAN_MOTION_DOT": 3.137e-05, "MEAN_MOTION_DDOT": 0}, "tle": {"line1": "1 34145U 97051DY  25352.36722785  .00003137  00000+0  92678-3 0  9994", "line2": "2 34145  86.2113 330.0199 0055736  75.9680 284.7708 14.42328092877199"}}, "geometry": {"type": "Point", "coordinates": [-31.86748349493552, -15.523055579378669]}}, {"type": "Feature", "properties": {"norad_id": 34146, "name": "IRIDIUM 33 DEB", "group": "iridium-33-debris", "lat": 15.02065136010092, "lon": 165.48858971330833, "alt_km": 713.5477863572632, "timestamp": "2025-12-20T05:41:50.415889+00:00", "meta": {"OBJECT_NAME": "IRIDIUM 33 DEB", "OBJECT_ID": "1997-051DZ", "EPOCH": "2025-12-19T11:24:45.977760", "MEAN_MOTION": 14.49090588, "ECCENTRICITY": 0.0026145, "INCLINATION": 86.2829, "RA_OF_ASC_NODE": 346.8246, "ARG_OF_PERICENTER": 198.122, "MEAN_ANOMALY": 315.0041, "EPHEMERIS_TYPE": 0, "CLASSIFICATION_TYPE": "U", "NORAD_CAT_ID": 34146, "ELEMENT_SET_NO": 999, "REV_AT_EPOCH": 88204, "BSTAR": 0.0006219, "MEAN_MOTION_DOT": 2.392e-05, "MEAN_MOTION_DDOT": 0}, "tle": {"line1": "1 34146U 97051DZ  25353.47553215  .00002392  00000+0  62190-3 0  9996", "line2": "2 34146  86.2829 346.8246 0026145 198.1220 315.0041 14.49090588882043"}}, "geometry": {"type": "Point", "coordinates": [165.48858971330833, 15.02065136010092]}}, {"type": "Feature", "properties": {"norad_id": 34159, "name": "IRIDIUM 33 DEB", "group": "iridium-33-debris", "lat": -44.83638487070553, "lon": 41.405810799144774, "alt_km": 759.1781877512412, "timestamp": "2025-12-20T05:41:50.415899+00:00", "meta": {"OBJECT_NAME": "IRIDIUM 33 DEB", "OBJECT_ID": "1997-051EN", "EPOCH": "2025-12-19T09:52:20.074080", "MEAN_MOTION": 14.38508991, "ECCENTRICITY": 0.0026, "INCLINATION": 86.3502, "RA_OF_ASC_NODE": 45.3967, "ARG_OF_PERICENTER": 264.238, "MEAN_ANOMALY": 95.5854, "EPHEMERIS_TYPE": 0, "CLASSIFICATION_TYPE": "U", "NORAD_CAT_ID": 34159, "ELEMENT_SET_NO": 999, "REV_AT_EPOCH": 88055, "BSTAR": 0.00027729, "MEAN_MOTION_DOT": 8.69e-06, "MEAN_MOTION_DDOT": 0}, "tle": {"line1": "1 34159U 97051EN  25353.41134345  .00000869  00000+0  27729-3 0  9999", "line2": "2 34159  86.3502  45.3967 0026000 264.2380  95.5854 14.38508991880555"}}, "geometry": {"type": "Point", "coordinates": [41.405810799144774, -44.83638487070553]}}, {"type": "Feature", "properties": {"norad_id": 34350, "name": "IRIDIUM 33 DEB", "group": "iridium-33-debris", "lat": 10.1884261216821, "lon": 178.8921984052132, "alt_km": 733.4587696037424, "timestamp": "2025-12-20T05:41:50.415909+00:00", "meta": {"OBJECT_NAME": "IRIDIUM 33 DEB", "OBJECT_ID": "1997-051ES", "EPOCH": "2025-12-19T12:52:33.855744", "MEAN_MOTION": 14.4540166, "ECCENTRICITY": 0.0023302, "INCLINATION": 86.3271, "RA_OF_ASC_NODE": 359.8577, "ARG_OF_PERICENTER": 114.287, "MEAN_ANOMALY": 10.4643, "EPHEMERIS_TYPE": 0, "CLASSIFICATION_TYPE": "U", "NORAD_CAT_ID": 34350, "ELEMENT_SET_NO": 999, "REV_AT_EPOCH": 88391, "BSTAR": 0.00023595, "MEAN_MOTION_DOT": 8.53e-06, "MEAN_MOTION_DDOT": 0}, "tle": {"line1": "1 34350U 97051ES  25353.53650296  .00000853  00000+0  23595-3 0  9993", "line2": "2 34350  86.3271 359.8577 0023302 114.2870  10.4643 14.45401660883919"}}, "geometry": {"type": "Point", "coordinates": [178.8921984052132, 10.1884261216821]}}, {"type": "Feature", "properties": {"norad_id": 34366, "name": "IRIDIUM 33 DEB", "group": "iridium-33-debris", "lat": 11.305113551594749, "lon": 46.78005202412692, "alt_km": 717.8610432029927, "timestamp": "2025-12-20T05:41:50.415920+00:00", "meta": {"OBJECT_NAME": "IRIDIUM 33 DEB", "OBJECT_ID": "1997-051FJ", "EPOCH": "2025-12-19T22:11:59.415936", "MEAN_MOTION": 14.54110408, "ECCENTRICITY": 0.00229835, "INCLINATION": 86.3692, "RA_OF_ASC_NODE": 46.1886, "ARG_OF_PERICENTER": 117.2578, "MEAN_ANOMALY": 60.1636, "EPHEMERIS_TYPE": 0, "CLASSIFICATION_TYPE": "U", "NORAD_CAT_ID": 34366, "ELEMENT_SET_NO": 999, "REV_AT_EPOCH": 88286, "BSTAR": 0.00060535024, "MEAN_MOTION_DOT": 2.586e-05, "MEAN_MOTION_DDOT": 0}, "tle": {"line1": "1 34366U 97051FJ  25353.92499324  .00002586  00000+0  60535-3 0  9996", "line2": "2 34366  86.3692  46.1886 0022983 117.2578  60.1636 14.54110408882868"}}, "geometry": {"type": "Point", "coordinates": [46.78005202412692, 11.305113551594749]}}]}